school_name,address,postal_code,dgp_code,zone_code,cluster_code,mainlevel_code,sap_ind,autonomous_ind,gifted_ind,ip_ind,Y,X
NATIONAL JUNIOR COLLEGE,37 HILLCREST ROAD,288913,BUKIT TIMAH,SOUTH,SOUTH 3,MIXED LEVEL,No,No,No,Yes,1.329973,103.804488
TEMASEK JUNIOR COLLEGE,22 BEDOK SOUTH ROAD,469278,BEDOK,EAST,EAST 2,MIXED LEVEL,No,No,No,Yes,1.3189,103.935561
VICTORIA JUNIOR COLLEGE,20 MARINE VISTA,449035,BEDOK,EAST,EAST 7,JUNIOR COLLEGE,No,No,No,Yes,1.306142,103.919825
EUNOIA JUNIOR COLLEGE,53 MOUNT SINAI ROAD,276880,BISHAN,NORTH,NORTH 1,JUNIOR COLLEGE,No,No,No,Yes,1.313511,103.786552
ANDERSON SERANGOON JUNIOR COLLEGE,4500 ANG MO KIO AVENUE 6,569843,ANG MO KIO,NORTH,NORTH 5,JUNIOR COLLEGE,No,No,No,No,1.378043,103.8457619
YISHUN INNOVA JUNIOR COLLEGE,3 YISHUN RING ROAD,768675,YISHUN,NORTH,NORTH 8,JUNIOR COLLEGE,No,No,No,No,1.424637,103.829634
TAMPINES MERIDIAN JUNIOR COLLEGE,21 PASIR RIS STREET 71,518799,PASIR RIS,EAST,EAST 1,JUNIOR COLLEGE,No,No,No,No,1.376067,103.937002
JURONG PIONEER JUNIOR COLLEGE,21 TECK WHYE WALK,688258,CHOA CHU KANG,WEST,WEST 2,JUNIOR COLLEGE,No,No,No,No,1.384627,103.753951
CATHOLIC JUNIOR COLLEGE,129 WHITLEY ROAD,297822,NOVENA,SOUTH,SOUTH 5,JUNIOR COLLEGE,No,No,No,No,1.324641,103.83554
ANGLO-CHINESE JUNIOR COLLEGE,25 DOVER CLOSE EAST,139745,QUEENSTOWN,WEST,WEST 1,JUNIOR COLLEGE,No,No,No,No,1.303305,103.785253
ST. ANDREW'S JUNIOR COLLEGE,5 SORBY ADAMS DRIVE,357691,TOA PAYOH,SOUTH,SOUTH 5,JUNIOR COLLEGE,No,No,No,No,1.3332005,103.8631951
NANYANG JUNIOR COLLEGE,128 SERANGOON AVENUE 3,556111,SERANGOON,SOUTH,SOUTH 6,JUNIOR COLLEGE,No,No,No,No,1.350297,103.866494
HWA CHONG INSTITUTION,661 BUKIT TIMAH ROAD,269734,BUKIT TIMAH,WEST,WEST 1,MIXED LEVEL,Yes,No,No,Yes,1.324644,103.8059
MILLENNIA INSTITUTE,60 BUKIT BATOK WEST AVENUE 8,658965,BUKIT BATOK,WEST,WEST 7,CENTRALISED INSTITUTE,No,No,No,No,1.350343,103.741592
BUKIT PANJANG PRIMARY SCHOOL,109 CASHEW ROAD,679676,BUKIT PANJANG,WEST,WEST 8,PRIMARY,No,No,No,No,1.37293,103.769259
HAIG GIRLS' SCHOOL,51 KOON SENG ROAD,427072,GEYLANG,EAST,EAST 5,PRIMARY,No,No,No,No,1.311559,103.902621
TECK WHYE PRIMARY SCHOOL,11 TECK WHYE WALK,688261,CHOA CHU KANG,WEST,WEST 5,PRIMARY,No,No,No,No,1.383126,103.753548
JURONG PRIMARY SCHOOL,320 JURONG EAST STREET 32,609476,JURONG EAST,WEST,WEST 4,PRIMARY,No,No,No,No,1.348679,103.732992
QUEENSTOWN PRIMARY SCHOOL,310 MARGARET DR,149303,QUEENSTOWN,SOUTH,SOUTH 2,PRIMARY,No,No,No,No,1.296349,103.807958
RADIN MAS PRIMARY SCHOOL,1 BUKIT PURMEI AVENUE,99840,BUKIT MERAH,SOUTH,SOUTH 4,PRIMARY,No,No,No,No,1.352083,103.819836
RAFFLES GIRLS' PRIMARY SCHOOL,21 HILLCREST ROAD,289072,BUKIT TIMAH,SOUTH,SOUTH 3,PRIMARY,No,No,Yes,No,1.330302,103.806788
ROSYTH SCHOOL,21 SERANGOON NORTH AVENUE 4,555855,SERANGOON,NORTH,NORTH 1,PRIMARY,No,No,Yes,No,1.372862,103.874791
DAMAI PRIMARY SCHOOL,52 BEDOK RESERVOIR CRESCENT,479226,BEDOK,EAST,EAST 4,PRIMARY,No,No,No,No,1.335847,103.921064
FUHUA PRIMARY SCHOOL,65 JURONG EAST STREET 13,609647,JURONG EAST,WEST,WEST 7,PRIMARY,No,No,No,No,1.336524,103.736118
WOODLANDS PRIMARY SCHOOL,10 WOODLANDS DRIVE 50,738853,WOODLANDS,NORTH,NORTH 7,PRIMARY,No,No,No,No,1.436771,103.791794
EUNOS PRIMARY SCHOOL,95 JALAN EUNOS,419529,GEYLANG,EAST,EAST 4,PRIMARY,No,No,No,No,1.324223,103.904727
HENRY PARK PRIMARY SCHOOL,1 HOLLAND GROVE ROAD,278790,BUKIT TIMAH,WEST,WEST 1,PRIMARY,No,No,Yes,No,1.3168709,103.784132
BENDEMEER PRIMARY SCHOOL,91 BENDEMEER ROAD,339948,KALLANG,SOUTH,SOUTH 5,PRIMARY,No,No,No,No,1.322197,103.865365
CORPORATION PRIMARY SCHOOL,31 JURONG WEST STREET 24,648347,JURONG WEST,WEST,WEST 3,PRIMARY,No,No,No,No,1.351499,103.707576
YIO CHU KANG PRIMARY SCHOOL,1 HOUGANG STREET 51,538720,HOUGANG,NORTH,NORTH 3,PRIMARY,No,No,No,No,1.3777919,103.885447
BLANGAH RISE PRIMARY SCHOOL,91 TELOK BLANGAH HEIGHTS,109100,BUKIT MERAH,SOUTH,SOUTH 2,PRIMARY,No,No,No,No,1.276261,103.808522
ANG MO KIO PRIMARY SCHOOL,20 ANG MO KIO AVENUE 3,569920,ANG MO KIO,SOUTH,SOUTH 1,PRIMARY,No,No,No,No,1.368803,103.839266
MAYFLOWER PRIMARY SCHOOL,200 ANG MO KIO AVE 5,569878,ANG MO KIO,SOUTH,SOUTH 1,PRIMARY,No,No,No,No,1.376395,103.843181
TECK GHEE PRIMARY SCHOOL,1 ANG MO KIO STREET 32,569299,ANG MO KIO,SOUTH,SOUTH 7,PRIMARY,No,No,No,No,1.365396,103.8505239
TEMASEK PRIMARY SCHOOL,501 BEDOK SOUTH AVE 3,469300,BEDOK,EAST,EAST 2,PRIMARY,No,No,No,No,1.317502,103.945488
SI LING PRIMARY SCHOOL,61 WOODLANDS AVENUE 1,739067,WOODLANDS,NORTH,NORTH 7,PRIMARY,No,No,No,No,1.432693,103.78577
JING SHAN PRIMARY SCHOOL,5 ANG MO KIO ST 52,569228,ANG MO KIO,SOUTH,SOUTH 1,PRIMARY,No,No,No,No,1.3714789,103.851863
YISHUN PRIMARY SCHOOL,500 YISHUN RING ROAD,768679,YISHUN,NORTH,NORTH 6,PRIMARY,No,No,No,No,1.434101,103.833896
STAMFORD PRIMARY SCHOOL,1 VICTORIA LANE,198423,CENTRAL,SOUTH,SOUTH 5,PRIMARY,No,No,No,No,1.303878,103.857586
FERNVALE PRIMARY SCHOOL,1 FERNVALE LANE,797701,SENG KANG,NORTH,NORTH 3,PRIMARY,No,No,No,No,1.389948,103.873919
TOWNSVILLE PRIMARY SCHOOL,3 ANG MO KIO AVE 10,569730,ANG MO KIO,SOUTH,SOUTH 7,PRIMARY,No,No,No,No,1.359123,103.854452
RULANG PRIMARY SCHOOL,6 JURONG WEST STREET 52,649295,JURONG WEST,WEST,WEST 7,PRIMARY,No,No,No,No,1.346187,103.718911
QIFA PRIMARY SCHOOL,50 WEST COAST AVENUE,128104,CLEMENTI,WEST,WEST 1,PRIMARY,No,No,No,No,1.312805,103.757141
ZHANGDE PRIMARY SCHOOL,51 JALAN MEMBINA,169485,BUKIT MERAH,SOUTH,SOUTH 4,PRIMARY,No,No,No,No,1.284578,103.826193
TAMPINES PRIMARY SCHOOL,250 TAMPINES STREET 12,529426,TAMPINES,EAST,EAST 6,PRIMARY,No,No,No,No,1.349774,103.94402
CHONGZHENG PRIMARY SCHOOL,1 TAMPINES STREET 21,529392,TAMPINES,EAST,EAST 3,PRIMARY,No,No,No,No,1.350835,103.951438
XINGHUA PRIMARY SCHOOL,45 HOUGANG AVENUE 1,538882,HOUGANG,SOUTH,SOUTH 6,PRIMARY,No,No,No,No,1.357861,103.889918
JIEMIN PRIMARY SCHOOL,2 YISHUN STREET 71,768515,YISHUN,NORTH,NORTH 2,PRIMARY,No,No,No,No,1.427671,103.830498
FUCHUN PRIMARY SCHOOL,23 WOODLANDS AVENUE 1,739063,WOODLANDS,NORTH,NORTH 7,PRIMARY,No,No,No,No,1.4302,103.778088
BUKIT VIEW PRIMARY SCHOOL,18 BUKIT BATOK STREET 21,659634,BUKIT BATOK,WEST,WEST 4,PRIMARY,No,No,No,No,1.346179,103.753862
CEDAR PRIMARY SCHOOL,15 CEDAR AVENUE,349700,TOA PAYOH,SOUTH,SOUTH 6,PRIMARY,No,No,No,No,1.335578,103.876669
OPERA ESTATE PRIMARY SCHOOL,48 FIDELIO STREET,458436,BEDOK,EAST,EAST 7,PRIMARY,No,No,No,No,1.319773,103.923725
RIVER VALLEY PRIMARY SCHOOL,2 RIVER VALLEY GREEN,237993,CENTRAL,SOUTH,SOUTH 4,PRIMARY,No,No,No,No,1.294206,103.836008
TELOK KURAU PRIMARY SCHOOL,50 BEDOK RESERVOIR RD,479239,BEDOK,EAST,EAST 4,PRIMARY,No,No,No,No,1.331377,103.911059
YUMIN PRIMARY SCHOOL,3 TAMPINES STREET 21,529393,TAMPINES,EAST,EAST 3,PRIMARY,No,No,No,No,1.351484,103.951159
SHUQUN PRIMARY SCHOOL,8 JURONG WEST STREET 51,649332,JURONG WEST,WEST,WEST 7,PRIMARY,No,No,No,No,1.347595,103.7215779
GAN ENG SENG PRIMARY SCHOOL,100 REDHILL CLOSE,158901,BUKIT MERAH,SOUTH,SOUTH 4,PRIMARY,No,No,No,No,1.285631,103.815421
GONGSHANG PRIMARY SCHOOL,1 TAMPINES STREET 42,529176,TAMPINES,EAST,EAST 3,PRIMARY,No,No,No,No,1.357339,103.948893
HUAMIN PRIMARY SCHOOL,530 YISHUN RING ROAD,768680,YISHUN,NORTH,NORTH 6,PRIMARY,No,No,No,No,1.427923,103.844727
XISHAN PRIMARY SCHOOL,8 YISHUN STREET 21,768611,YISHUN,NORTH,NORTH 2,PRIMARY,No,No,No,No,1.433577,103.837571
PRINCESS ELIZABETH PRIMARY SCHOOL,30 BUKIT BATOK WEST AVENUE 3,659163,BUKIT BATOK,WEST,WEST 7,PRIMARY,No,No,No,No,1.349481,103.74102
DAZHONG PRIMARY SCHOOL,35 BUKIT BATOK STREET 31,659441,BUKIT BATOK,WEST,WEST 4,PRIMARY,No,No,No,No,1.359,103.7485279
BEDOK GREEN PRIMARY SCHOOL,1 BEDOK SOUTH AVE 2,469317,BEDOK,EAST,EAST 2,PRIMARY,No,No,No,No,1.323989,103.937761
LIANHUA PRIMARY SCHOOL,2 BUKIT BATOK STREET 52,659243,BUKIT BATOK,WEST,WEST 4,PRIMARY,No,No,No,No,1.354143,103.754202
ZHONGHUA PRIMARY SCHOOL,12 SERANGOON AVENUE 4,556095,SERANGOON,SOUTH,SOUTH 6,PRIMARY,No,No,No,No,1.359895,103.869558
PEIYING PRIMARY SCHOOL,651 YISHUN RING ROAD,768687,YISHUN,NORTH,NORTH 6,PRIMARY,No,No,No,No,1.417009,103.830256
KEMING PRIMARY SCHOOL,90 BUKIT BATOK EAST AVENUE 6,659762,BUKIT BATOK,WEST,WEST 4,PRIMARY,No,No,No,No,1.344781,103.756511
CHANGKAT PRIMARY SCHOOL,11 SIMEI ST 3,529896,TAMPINES,EAST,EAST 4,PRIMARY,No,No,No,No,1.340164,103.951801
ZHENGHUA PRIMARY SCHOOL,9 FAJAR ROAD,679002,BUKIT PANJANG,WEST,WEST 5,PRIMARY,No,No,No,No,1.37957,103.769301
SOUTH VIEW PRIMARY SCHOOL,6 CHOA CHU KANG CENTRAL,689762,CHOA CHU KANG,WEST,WEST 2,PRIMARY,No,No,No,No,1.381324,103.747145
PASIR RIS PRIMARY SCHOOL,5 PASIR RIS STREET 21,518968,PASIR RIS,EAST,EAST 6,PRIMARY,No,No,No,No,1.372305,103.962479
CHUA CHU KANG PRIMARY SCHOOL,20 CHOA CHU KANG AVENUE 2,689905,CHOA CHU KANG,WEST,WEST 2,PRIMARY,No,No,No,No,1.378056,103.7417229
GREENRIDGE PRIMARY SCHOOL,11 JELAPANG ROAD,677744,BUKIT PANJANG,WEST,WEST 5,PRIMARY,No,No,No,No,1.385851,103.767546
FARRER PARK PRIMARY SCHOOL,2 FARRER PARK ROAD,217567,KALLANG,SOUTH,SOUTH 5,PRIMARY,No,No,No,No,1.312139,103.850992
BUKIT TIMAH PRIMARY SCHOOL,111 LORONG KISMIS,598112,BUKIT TIMAH,WEST,WEST 7,PRIMARY,No,No,No,No,1.337385,103.766768
LAKESIDE PRIMARY SCHOOL,161 CORPORATION WALK,618310,JURONG WEST,WEST,WEST 7,PRIMARY,No,No,No,No,1.338216,103.717603
BEACON PRIMARY SCHOOL,36 BUKIT PANJANG RING ROAD,679944,BUKIT PANJANG,WEST,WEST 5,PRIMARY,No,No,No,No,1.384235,103.77377
INNOVA PRIMARY SCHOOL,80 WOODLANDS DRIVE 17,737888,WOODLANDS,NORTH,NORTH 8,PRIMARY,No,No,No,No,1.428957,103.790631
GREENDALE PRIMARY SCHOOL,50 EDGEDALE PLAINS,828848,PUNGGOL,NORTH,NORTH 4,PRIMARY,No,No,No,No,1.396421,103.912588
ENDEAVOUR PRIMARY SCHOOL,10 ADMIRALTY LINK,757521,SEMBAWANG,NORTH,NORTH 8,PRIMARY,No,No,No,No,1.454201,103.817423
NORTH VISTA PRIMARY SCHOOL,20 COMPASSVALE LINK,544974,SENG KANG,NORTH,NORTH 1,PRIMARY,No,No,No,No,1.382913,103.89588
ANCHOR GREEN PRIMARY SCHOOL,31 ANCHORVALE DRIVE,544969,SENG KANG,NORTH,NORTH 3,PRIMARY,No,No,No,No,1.390652,103.887283
HORIZON PRIMARY SCHOOL,61 EDGEDALE PLAINS,828819,PUNGGOL,NORTH,NORTH 4,PRIMARY,No,No,No,No,1.400025,103.913058
CANTONMENT PRIMARY SCHOOL,1 CANTONMENT CLOSE,88256,BUKIT MERAH,SOUTH,SOUTH 4,PRIMARY,No,No,No,No,1.352083,103.819836
FRONTIER PRIMARY SCHOOL,20 JURONG WEST STREET 61,648200,JURONG WEST,WEST,WEST 3,PRIMARY,No,No,No,No,1.352083,103.819836
WESTWOOD PRIMARY SCHOOL,1 JURONG WEST STREET 73,649188,JURONG WEST,WEST,WEST 8,PRIMARY,No,No,No,No,1.352083,103.819836
PUNGGOL GREEN PRIMARY SCHOOL,98 PUNGGOL WALK,828772,PUNGGOL,EAST,EAST 1,PRIMARY,No,No,No,No,1.352083,103.819836
PUNGGOL VIEW PRIMARY SCHOOL,9 PUNGGOL PLACE,828845,PUNGGOL,EAST,EAST 1,PRIMARY,No,No,No,No,1.4052971,103.90518
SENGKANG GREEN PRIMARY SCHOOL,15 FERNVALE ROAD,797636,SENG KANG,EAST,EAST 3,PRIMARY,No,No,No,No,1.352083,103.819836
SPRINGDALE PRIMARY SCHOOL,71 ANCHORVALE LINK,544799,SENG KANG,EAST,EAST 3,PRIMARY,No,No,No,No,1.352083,103.819836
PALM VIEW PRIMARY SCHOOL,150 COMPASSVALE BOW,544822,SENG KANG,NORTH,NORTH 1,PRIMARY,No,No,No,No,1.352083,103.819836
RIVERSIDE PRIMARY SCHOOL,110 WOODLANDS CRESCENT,737803,WOODLANDS,NORTH,NORTH 7,PRIMARY,No,No,No,No,1.352083,103.819836
WEST SPRING PRIMARY SCHOOL,60 BUKIT PANJANG RING ROAD,679946,BUKIT PANJANG,WEST,WEST 6,PRIMARY,No,No,No,No,1.352083,103.819836
ALEXANDRA PRIMARY SCHOOL,2A PRINCE CHARLES CRESCENT,159016,BUKIT MERAH,SOUTH,SOUTH 4,PRIMARY,No,No,No,No,1.29273,103.8220886
NORTHOAKS PRIMARY SCHOOL,61 SEMBAWANG DRIVE,757622,SEMBAWANG,NORTH,NORTH 8,PRIMARY,No,No,No,No,1.456638,103.813826
ANGSANA PRIMARY SCHOOL,3 TAMPINES STREET 22,529366,TAMPINES,EAST,EAST 3,PRIMARY,No,No,No,No,1.348251,103.951859
PUNGGOL COVE PRIMARY SCHOOL,52 SUMANG WALK,828674,PUNGGOL,EAST,EAST 1,PRIMARY,No,No,No,No,1.352083,103.819836
OASIS PRIMARY SCHOOL,71 EDGEFIELD PLAINS,828716,PUNGGOL,EAST,EAST 6,PRIMARY,No,No,No,No,1.352083,103.819836
WATERWAY PRIMARY SCHOOL,70 PUNGGOL DRIVE,828802,PUNGGOL,EAST,EAST 6,PRIMARY,No,No,No,No,1.352083,103.819836
FERN GREEN PRIMARY SCHOOL,70 FERNVALE LINK,797538,SENG KANG,EAST,EAST 3,PRIMARY,No,No,No,No,1.3977267,103.8797996
FIRST TOA PAYOH PRIMARY SCHOOL,7 LORONG 8 TOA PAYOH,319252,TOA PAYOH,SOUTH,SOUTH 3,PRIMARY,No,No,No,No,1.340145,103.855651
NEW TOWN PRIMARY SCHOOL,300 TANGLIN HALT ROAD,148812,QUEENSTOWN,SOUTH,SOUTH 2,PRIMARY,No,No,No,No,1.299825,103.799953
BOON LAY GARDEN PRIMARY SCHOOL,20 BOON LAY DRIVE,649930,JURONG WEST,WEST,WEST 8,PRIMARY,No,No,No,No,1.34287,103.712983
MARSILING PRIMARY SCHOOL,31 WOODLANDS CENTRE ROAD,738927,WOODLANDS,NORTH,NORTH 5,PRIMARY,No,No,No,No,1.433827,103.773663
PEI TONG PRIMARY SCHOOL,15 CLEMENTI AVENUE 5,129857,CLEMENTI,SOUTH,SOUTH 2,PRIMARY,No,No,No,No,1.315889,103.767747
YUHUA PRIMARY SCHOOL,158 JURONG EAST STREET 24,609558,JURONG EAST,WEST,WEST 1,PRIMARY,No,No,No,No,1.343263,103.740763
FENGSHAN PRIMARY SCHOOL,307 BEDOK NORTH ROAD,469680,BEDOK,EAST,EAST 2,PRIMARY,No,No,No,No,1.329819,103.9319019
YU NENG PRIMARY SCHOOL,56 BEDOK NORTH ST 3,469623,BEDOK,EAST,EAST 2,PRIMARY,No,No,No,No,1.333929,103.932513
XINMIN PRIMARY SCHOOL,9 HOUGANG AVENUE 8,538784,HOUGANG,NORTH,NORTH 1,PRIMARY,No,No,No,No,1.371069,103.8830289
YANGZHENG PRIMARY SCHOOL,15 SERANGOON AVENUE 3,556108,SERANGOON,SOUTH,SOUTH 6,PRIMARY,No,No,No,No,1.348506,103.868407
JUYING PRIMARY SCHOOL,31 JURONG WEST STREET 91,649037,JURONG WEST,WEST,WEST 3,PRIMARY,No,No,No,No,1.33837,103.688061
JUNYUAN PRIMARY SCHOOL,2 TAMPINES STREET 91,528906,TAMPINES,EAST,EAST 2,PRIMARY,No,No,No,No,1.347973,103.940012
NORTHLAND PRIMARY SCHOOL,15 YISHUN AVENUE 4,769026,YISHUN,NORTH,NORTH 2,PRIMARY,No,No,No,No,1.420935,103.840768
NAVAL BASE PRIMARY SCHOOL,7 YISHUN AVE 4,769028,YISHUN,NORTH,NORTH 6,PRIMARY,No,No,No,No,1.416055,103.839091
XINGNAN PRIMARY SCHOOL,5 JURONG WEST STREET 91,649036,JURONG WEST,WEST,WEST 3,PRIMARY,No,No,No,No,1.342223,103.688066
QIHUA PRIMARY SCHOOL,5 WOODLANDS STREET 81,738525,WOODLANDS,NORTH,NORTH 5,PRIMARY,No,No,No,No,1.442105,103.788557
GUANGYANG PRIMARY SCHOOL,6 BISHAN STREET 12,579806,BISHAN,SOUTH,SOUTH 7,PRIMARY,No,No,No,No,1.346017,103.849681
TAMPINES NORTH PRIMARY SCHOOL,30 TAMPINES AVENUE 9,529565,TAMPINES,EAST,EAST 6,PRIMARY,No,No,No,No,1.360298,103.948581
ELIAS PARK PRIMARY SCHOOL,11 PASIR RIS STREET 52,518866,PASIR RIS,EAST,EAST 1,PRIMARY,No,No,No,No,1.374697,103.945633
AHMAD IBRAHIM PRIMARY SCHOOL,10 YISHUN STREET 11,768643,YISHUN,NORTH,NORTH 2,PRIMARY,No,No,No,No,1.433543,103.832949
NORTH VIEW PRIMARY SCHOOL,210 YISHUN AVENUE 6,768960,YISHUN,NORTH,NORTH 6,PRIMARY,No,No,No,No,1.427616,103.848313
PIONEER PRIMARY SCHOOL,23 JURONG WEST STREET 81,649076,JURONG WEST,WEST,WEST 3,PRIMARY,No,No,No,No,1.348486,103.694609
PUNGGOL PRIMARY SCHOOL,61 HOUGANG AVENUE 8,538787,HOUGANG,SOUTH,SOUTH 1,PRIMARY,No,No,No,No,1.37819,103.894746
PARK VIEW PRIMARY SCHOOL,60 PASIR RIS DRIVE 1,519524,PASIR RIS,EAST,EAST 6,PRIMARY,No,No,No,No,1.377331,103.939371
ADMIRALTY PRIMARY SCHOOL,11 WOODLANDS CIRCLE,738907,WOODLANDS,NORTH,NORTH 5,PRIMARY,No,No,No,No,1.442888,103.799693
KRANJI PRIMARY SCHOOL,11 CHOA CHU KANG STREET 54,689189,CHOA CHU KANG,WEST,WEST 8,PRIMARY,No,No,No,No,1.393694,103.7477849
SENG KANG PRIMARY SCHOOL,21 COMPASSVALE WALK,545166,SENG KANG,NORTH,NORTH 1,PRIMARY,No,No,No,No,1.3890411,103.8993117
WOODLANDS RING PRIMARY SCHOOL,11 WOODLANDS RING ROAD,738240,WOODLANDS,NORTH,NORTH 5,PRIMARY,No,No,No,No,1.434839,103.797928
WEST VIEW PRIMARY SCHOOL,31 SENJA ROAD,677742,BUKIT PANJANG,WEST,WEST 5,PRIMARY,No,No,No,No,1.383113,103.760229
WHITE SANDS PRIMARY SCHOOL,2 PASIR RIS ST 11,519075,PASIR RIS,EAST,EAST 6,PRIMARY,No,No,No,No,1.364903,103.961329
UNITY PRIMARY SCHOOL,21 CHOA CHU KANG CRESCENT,688268,CHOA CHU KANG,WEST,WEST 2,PRIMARY,No,No,No,No,1.403245,103.74729
CANBERRA PRIMARY SCHOOL,21 ADMIRALTY DRIVE,757714,SEMBAWANG,NORTH,NORTH 7,PRIMARY,No,No,No,No,1.450666,103.81587
RIVERVALE PRIMARY SCHOOL,80 RIVERVALE DRIVE,545092,SENG KANG,NORTH,NORTH 1,PRIMARY,No,No,No,No,1.393196,103.904383
JURONG WEST PRIMARY SCHOOL,30 JURONG WEST ST 61,648368,JURONG WEST,WEST,WEST 3,PRIMARY,No,No,No,No,1.339037,103.698854
EAST SPRING PRIMARY SCHOOL,31 TAMPINES ST 33,529258,TAMPINES,EAST,EAST 3,PRIMARY,No,No,No,No,1.35349,103.961799
EVERGREEN PRIMARY SCHOOL,31 WOODLANDS CIRCLE,738908,WOODLANDS,NORTH,NORTH 5,PRIMARY,No,No,No,No,1.444082,103.795038
COMPASSVALE PRIMARY SCHOOL,21 COMPASSVALE ST,545091,SENG KANG,NORTH,NORTH 3,PRIMARY,No,No,No,No,1.39418,103.897901
WOODGROVE PRIMARY SCHOOL,2 WOODLANDS DRIVE 14,738079,WOODLANDS,NORTH,NORTH 5,PRIMARY,No,No,No,No,1.4332339,103.790306
SEMBAWANG PRIMARY SCHOOL,10 SEMBAWANG DRIVE,757715,SEMBAWANG,NORTH,NORTH 8,PRIMARY,No,No,No,No,1.44497,103.820734
CONCORD PRIMARY SCHOOL,3 CHOA CHU KANG AVE 4,689814,CHOA CHU KANG,WEST,WEST 2,PRIMARY,No,No,No,No,1.380026,103.73625
NORTH SPRING PRIMARY SCHOOL,1 RIVERVALE STREET,545088,SENG KANG,NORTH,NORTH 4,PRIMARY,No,No,No,No,1.386881,103.903609
YEW TEE PRIMARY SCHOOL,10 CHOA CHU KANG ST 64,689100,CHOA CHU KANG,WEST,WEST 8,PRIMARY,No,No,No,No,1.396985,103.751221
HOUGANG PRIMARY SCHOOL,1 HOUGANG ST 93,534238,HOUGANG,NORTH,NORTH 3,PRIMARY,No,No,No,No,1.37734,103.881046
MERIDIAN PRIMARY SCHOOL,20 PASIR RIS ST 71,518798,PASIR RIS,EAST,EAST 1,PRIMARY,No,No,No,No,1.375781,103.935197
GREENWOOD PRIMARY SCHOOL,11 WOODLANDS  DR  62,737942,WOODLANDS,NORTH,NORTH 8,PRIMARY,No,No,No,No,1.43985,103.804609
ANDERSON PRIMARY SCHOOL,19 ANG MO KIO AVE 9,569785,ANG MO KIO,NORTH,NORTH 6,PRIMARY,No,No,No,No,1.384692,103.841225
WELLINGTON PRIMARY SCHOOL,10 WELLINGTON CIRCLE,757702,SEMBAWANG,NORTH,NORTH 7,PRIMARY,No,No,No,No,1.452297,103.8219
EDGEFIELD PRIMARY SCHOOL,41 EDGEFIELD PLAINS,828869,PUNGGOL,NORTH,NORTH 3,PRIMARY,No,No,No,No,1.399887,103.907469
WEST GROVE PRIMARY SCHOOL,1 JURONG WEST ST 72,649223,JURONG WEST,WEST,WEST 3,PRIMARY,No,No,No,No,1.34455,103.698987
CASUARINA PRIMARY SCHOOL,30 PASIR RIS ST 41,518935,PASIR RIS,EAST,EAST 6,PRIMARY,No,No,No,No,1.3724209,103.957724
CLEMENTI PRIMARY SCHOOL,8 CLEMENTI AVE 3,129903,CLEMENTI,WEST,WEST 1,PRIMARY,No,No,No,No,1.315403,103.763253
TANJONG KATONG PRIMARY SCHOOL,860 NEW UPPER CHANGI ROAD,467353,MARINE PARADE,EAST,EAST 5,PRIMARY,No,No,No,No,1.32368,103.938907
ANDERSON SECONDARY SCHOOL,10 ANG MO KIO STREET 53,569206,ANG MO KIO,NORTH,NORTH 3,SECONDARY,No,Yes,No,No,1.374262,103.851456
BARTLEY SECONDARY SCHOOL,10 JALAN BUNGA RAMPAI,538403,TOA PAYOH,SOUTH,SOUTH 6,SECONDARY,No,No,No,No,1.340275,103.882831
BEATTY SECONDARY SCHOOL,1 TOA PAYOH NORTH,318990,TOA PAYOH,SOUTH,SOUTH 3,SECONDARY,No,No,No,No,1.34154,103.851956
CEDAR GIRLS' SECONDARY SCHOOL,1 CEDAR AVENUE,349692,TOA PAYOH,EAST,EAST 7,SECONDARY,No,Yes,No,Yes,1.333751,103.874242
CRESCENT GIRLS' SCHOOL,357 TANGLIN ROAD,247961,BUKIT MERAH,SOUTH,SOUTH 2,SECONDARY,No,Yes,No,No,1.293338,103.817566
GAN ENG SENG SCHOOL,1 HENDERSON ROAD,159561,BUKIT MERAH,SOUTH,SOUTH 4,SECONDARY,No,No,No,No,1.289088,103.823727
QUEENSWAY SECONDARY SCHOOL,2A MARGARET DRIVE,149295,QUEENSTOWN,SOUTH,SOUTH 2,SECONDARY,No,No,No,No,1.300681,103.801857
RAFFLES GIRLS' SCHOOL (SECONDARY),20 ANDERSON ROAD,259978,CENTRAL,SOUTH,SOUTH 7,SECONDARY,No,No,Yes,Yes,1.31172,103.828974
RAFFLES INSTITUTION,1 RAFFLES INSTITUTION LANE,575954,BISHAN,SOUTH,SOUTH 7,MIXED LEVEL,No,No,Yes,Yes,1.345712,103.845871
SERANGOON SECONDARY SCHOOL,11 UPPER SERANGOON VIEW,534237,HOUGANG,NORTH,NORTH 3,SECONDARY,No,No,No,No,1.3744939,103.9024166
COMMONWEALTH SECONDARY SCHOOL,698 WEST COAST ROAD,608784,JURONG EAST,WEST,WEST 7,SECONDARY,No,Yes,No,No,1.3192,103.745652
TANJONG KATONG GIRLS' SCHOOL,2 BEDOK SOUTH ROAD,469268,MARINE PARADE,EAST,EAST 5,SECONDARY,No,Yes,No,No,1.32223,103.92679
VICTORIA SCHOOL,2 SIGLAP LINK,448880,BEDOK,EAST,EAST 7,SECONDARY,No,Yes,Yes,Yes,1.308378,103.927638
WHITLEY SECONDARY SCHOOL,30 BISHAN STREET 24,579747,BISHAN,SOUTH,SOUTH 7,SECONDARY,No,No,No,No,1.355497,103.843265
YUHUA SECONDARY SCHOOL,35 JURONG WEST STREET 41,649406,JURONG WEST,WEST,WEST 7,SECONDARY,No,No,No,No,1.347026,103.722405
YISHUN SECONDARY SCHOOL,4 YISHUN STREET 71,768516,YISHUN,NORTH,NORTH 2,SECONDARY,No,No,No,No,1.428129,103.828833
BENDEMEER SECONDARY SCHOOL,1 ST WILFRED ROAD,327919,KALLANG,SOUTH,SOUTH 5,SECONDARY,No,No,No,No,1.32432,103.861002
FUCHUN SECONDARY SCHOOL,21 WOODLANDS AVENUE 1,739062,WOODLANDS,NORTH,NORTH 7,SECONDARY,No,No,No,No,1.430948,103.777326
ANG MO KIO SECONDARY SCHOOL,6 ANG MO KIO STREET 22,569362,ANG MO KIO,SOUTH,SOUTH 1,SECONDARY,No,No,No,No,1.367353,103.8426
BEDOK SOUTH SECONDARY SCHOOL,1 JALAN LANGGAR BEDOK,468585,BEDOK,EAST,EAST 2,SECONDARY,No,No,No,No,1.3248089,103.950977
CLEMENTI TOWN SECONDARY SCHOOL,10 CLEMENTI AVE 3,129904,CLEMENTI,WEST,WEST 1,SECONDARY,No,No,No,No,1.315501,103.762094
TEMASEK SECONDARY SCHOOL,600 UPPER EAST COAST ROAD,465561,BEDOK,EAST,EAST 2,SECONDARY,No,Yes,No,No,1.3157589,103.9471669
MAYFLOWER SECONDARY SCHOOL,2 ANG MO KIO STREET 21,569384,ANG MO KIO,SOUTH,SOUTH 1,SECONDARY,No,No,No,No,1.368331,103.835438
TAMPINES SECONDARY SCHOOL,252 TAMPINES ST 12,529427,TAMPINES,EAST,EAST 6,SECONDARY,No,No,No,No,1.34871,103.944486
BUKIT VIEW SECONDARY SCHOOL,16 BUKIT BATOK STREET 21,659633,BUKIT BATOK,WEST,WEST 4,SECONDARY,No,No,No,No,1.34572,103.752298
WOODLANDS SECONDARY SCHOOL,11 MARSILING ROAD,739111,WOODLANDS,NORTH,NORTH 5,SECONDARY,No,No,No,No,1.439565,103.774208
BOWEN SECONDARY SCHOOL,2 LORONG NAPIRI,547529,HOUGANG,NORTH,NORTH 1,SECONDARY,No,No,No,No,1.370117,103.877649
BUKIT BATOK SECONDARY SCHOOL,50 BUKIT BATOK WEST AVE 8,658962,BUKIT BATOK,WEST,WEST 7,SECONDARY,No,No,No,No,1.348506,103.740867
YISHUN TOWN SECONDARY SCHOOL,6 YISHUN STREET 21,768610,YISHUN,NORTH,NORTH 2,SECONDARY,No,Yes,No,No,1.43231,103.837858
HOUGANG SECONDARY SCHOOL,2 HOUGANG STREET 93,534256,HOUGANG,NORTH,NORTH 3,SECONDARY,No,No,No,No,1.377661,103.88253
NAN HUA HIGH SCHOOL,41 CLEMENTI AVENUE 1,129956,CLEMENTI,WEST,WEST 1,SECONDARY,Yes,Yes,No,No,1.30807,103.769189
HILLGROVE SECONDARY SCHOOL,10 BUKIT BATOK STREET 52,659250,BUKIT BATOK,WEST,WEST 2,SECONDARY,No,No,No,No,1.352752,103.753048
XINMIN SECONDARY SCHOOL,11 HOUGANG AVENUE 8,538789,HOUGANG,NORTH,NORTH 1,SECONDARY,No,Yes,No,No,1.372635,103.883077
GREENRIDGE SECONDARY SCHOOL,32 BUKIT PANJANG RING ROAD,679938,BUKIT PANJANG,WEST,WEST 5,SECONDARY,No,No,No,No,1.38206,103.773836
SPRINGFIELD SECONDARY SCHOOL,30 TAMPINES AVENUE 8,529593,TAMPINES,EAST,EAST 3,SECONDARY,No,No,No,No,1.349409,103.929982
CHUA CHU KANG SECONDARY SCHOOL,3 TECK WHYE CRESCENT,688845,CHOA CHU KANG,WEST,WEST 5,SECONDARY,No,No,No,No,1.383169,103.7515839
DAMAI SECONDARY SCHOOL,4800 BEDOK RESERVOIR ROAD,479229,BEDOK,EAST,EAST 4,SECONDARY,No,No,No,No,1.336405,103.927061
NORTHLAND SECONDARY SCHOOL,3 YISHUN STREET 22,768578,YISHUN,NORTH,NORTH 2,SECONDARY,No,No,No,No,1.435827,103.840098
PEIRCE SECONDARY SCHOOL,10 SIN MING WALK,575566,BISHAN,SOUTH,SOUTH 7,SECONDARY,No,No,No,No,1.36613,103.829903
JURONGVILLE SECONDARY SCHOOL,202 JURONG EAST AVENUE 1,609790,JURONG EAST,WEST,WEST 4,SECONDARY,No,No,No,No,1.351493,103.729161
FAJAR SECONDARY SCHOOL,31 GANGSA ROAD,678972,BUKIT PANJANG,WEST,WEST 8,SECONDARY,No,No,No,No,1.375887,103.764493
KRANJI SECONDARY SCHOOL,38 TECK WHYE CRESCENT,688945,CHOA CHU KANG,WEST,WEST 8,SECONDARY,No,No,No,No,1.381679,103.756524
JUYING SECONDARY SCHOOL,33 JURONG WEST STREET 91,649038,JURONG WEST,WEST,WEST 3,SECONDARY,No,No,No,No,1.338205,103.687205
WEST SPRING SECONDARY SCHOOL,61 SENJA  ROAD,677737,BUKIT PANJANG,WEST,WEST 5,SECONDARY,No,No,No,No,1.387707,103.760018
JURONG WEST SECONDARY SCHOOL,61 JURONG WEST STREET 65,648348,JURONG WEST,WEST,WEST 3,SECONDARY,No,No,No,No,1.335276,103.702086
BEDOK GREEN SECONDARY SCHOOL,360 BEDOK NORTH AVE 3,469722,BEDOK,EAST,EAST 2,SECONDARY,No,No,No,No,1.333844,103.935512
PUNGGOL SECONDARY SCHOOL,51 EDGEFIELD PLAINS,828870,PUNGGOL,NORTH,NORTH 4,SECONDARY,No,No,No,No,1.402069,103.909443
NORTH VISTA SECONDARY SCHOOL,11 RIVERVALE LINK,545081,SENG KANG,NORTH,NORTH 1,SECONDARY,No,No,No,No,1.381017,103.899463
ADMIRALTY SECONDARY SCHOOL,31 WOODLANDS CRESCENT,737916,WOODLANDS,NORTH,NORTH 7,SECONDARY,No,No,No,No,1.445881,103.802398
PEI HWA SECONDARY SCHOOL,21 FERNVALE LINK,797702,SENG KANG,NORTH,NORTH 3,SECONDARY,No,No,No,No,1.390273,103.878474
GREENDALE SECONDARY SCHOOL,51 EDGEDALE PLAINS,828866,PUNGGOL,NORTH,NORTH 4,SECONDARY,No,No,No,No,1.396986,103.9117179
EDGEFIELD SECONDARY SCHOOL,36 PUNGGOL FIELD,828814,PUNGGOL,NORTH,NORTH 3,SECONDARY,No,No,No,No,1.399882,103.902302
MERIDIAN SECONDARY SCHOOL,31 PASIR RIS STREET 51,518901,PASIR RIS,EAST,EAST 1,SECONDARY,No,No,No,No,1.3671009,103.949261
LOYANG VIEW SECONDARY SCHOOL,12 PASIR RIS STREET 11,519073,PASIR RIS,EAST,EAST 1,SECONDARY,No,No,No,No,1.366972,103.956826
DUNMAN HIGH SCHOOL,10 TANJONG RHU ROAD,436895,KALLANG,EAST,EAST 4,MIXED LEVEL,Yes,Yes,Yes,Yes,1.29836,103.882979
RIVER VALLEY HIGH SCHOOL,6 BOON LAY AVENUE,649961,JURONG WEST,WEST,WEST 7,MIXED LEVEL,Yes,Yes,No,Yes,1.343172,103.70949
AHMAD IBRAHIM SECONDARY SCHOOL,751 YISHUN AVENUE 7,768928,YISHUN,NORTH,NORTH 8,SECONDARY,No,No,No,No,1.436663,103.829889
BROADRICK SECONDARY SCHOOL,61 DAKOTA CRESCENT,399935,GEYLANG,EAST,EAST 5,SECONDARY,No,No,No,No,1.307522,103.886698
BUKIT MERAH SECONDARY SCHOOL,10 LENGKOK BAHRU,159050,BUKIT MERAH,SOUTH,SOUTH 2,SECONDARY,No,No,No,No,1.285583,103.81344
BUKIT PANJANG GOVT. HIGH SCHOOL,7 CHOA CHU KANG AVE 4,689809,CHOA CHU KANG,WEST,WEST 5,SECONDARY,No,Yes,No,No,1.38166,103.738424
DUNMAN SECONDARY SCHOOL,21 TAMPINES STREET 45,529093,TAMPINES,EAST,EAST 3,SECONDARY,No,Yes,No,No,1.360673,103.956206
JURONG SECONDARY SCHOOL,31 YUAN CHING ROAD,618652,JURONG WEST,WEST,WEST 4,SECONDARY,No,No,No,No,1.330365,103.724282
NAVAL BASE SECONDARY SCHOOL,901 YISHUN RING ROAD,768689,YISHUN,NORTH,NORTH 2,SECONDARY,No,No,No,No,1.41924,103.8310319
OUTRAM SECONDARY SCHOOL,3 YORK HILL,168622,CENTRAL,SOUTH,SOUTH 4,SECONDARY,No,No,No,No,1.286507,103.837091
YIO CHU KANG SECONDARY SCHOOL,3063 ANG MO KIO AVENUE 5,569868,ANG MO KIO,NORTH,NORTH 6,SECONDARY,No,No,No,No,1.377635,103.842103
YUAN CHING SECONDARY SCHOOL,103 YUAN CHING ROAD,618654,JURONG WEST,WEST,WEST 4,SECONDARY,No,No,No,No,1.341917,103.720994
BOON LAY SECONDARY SCHOOL,11 JURONG WEST STREET 65,648354,JURONG WEST,WEST,WEST 3,SECONDARY,No,No,No,No,1.342172,103.701945
BEDOK VIEW SECONDARY SCHOOL,6 BEDOK SOUTH AVENUE 3,469293,BEDOK,EAST,EAST 2,SECONDARY,No,No,No,No,1.324312,103.9439189
HUA YI SECONDARY SCHOOL,60 JURONG WEST ST 42,649371,JURONG WEST,WEST,WEST 4,SECONDARY,No,No,No,No,1.351473,103.72158
DEYI SECONDARY SCHOOL,1 ANG MO KIO STREET 42,569277,ANG MO KIO,NORTH,NORTH 6,SECONDARY,No,No,No,No,1.365893,103.852329
PING YI SECONDARY SCHOOL,61 CHAI CHEE STREET,468980,BEDOK,EAST,EAST 5,SECONDARY,No,No,No,No,1.326674,103.920663
PEICAI SECONDARY SCHOOL,10 SERANGOON AVENUE 4,556094,SERANGOON,SOUTH,SOUTH 6,SECONDARY,No,No,No,No,1.3587,103.870667
PASIR RIS SECONDARY SCHOOL,390 TAMPINES STREET 21,529400,TAMPINES,EAST,EAST 6,SECONDARY,No,No,No,No,1.354805,103.948043
GUANGYANG SECONDARY SCHOOL,8 BISHAN STREET 12,579807,BISHAN,SOUTH,SOUTH 7,SECONDARY,No,No,No,No,1.344693,103.850566
RIVERSIDE SECONDARY SCHOOL,3 WOODLANDS STREET 81,738524,WOODLANDS,NORTH,NORTH 5,SECONDARY,No,No,No,No,1.44088,103.788728
ZHONGHUA SECONDARY SCHOOL,13 SERANGOON AVENUE 3,556123,SERANGOON,SOUTH,SOUTH 6,SECONDARY,No,Yes,No,No,1.3494569,103.869187
SWISS COTTAGE SECONDARY SCHOOL,3 BUKIT BATOK STREET 34,659322,BUKIT BATOK,WEST,WEST 4,SECONDARY,No,No,No,No,1.364045,103.750416
YUSOF ISHAK SECONDARY SCHOOL,11 BUKIT BATOK STREET 25,658712,BUKIT BATOK,WEST,WEST 2,SECONDARY,No,No,No,No,1.342423,103.760309
CHANGKAT CHANGI SECONDARY SCHOOL,23 SIMEI ST 3,529894,TAMPINES,EAST,EAST 4,SECONDARY,No,No,No,No,1.340939,103.952619
TECK WHYE SECONDARY SCHOOL,31 TECK WHYE CRESCENT,688848,CHOA CHU KANG,WEST,WEST 6,SECONDARY,No,No,No,No,1.382536,103.755214
DUNEARN SECONDARY SCHOOL,21 BUKIT BATOK WEST AVENUE 2,659204,BUKIT BATOK,WEST,WEST 2,SECONDARY,No,No,No,No,1.363886,103.74518
NEW TOWN SECONDARY SCHOOL,1020 DOVER ROAD,139657,QUEENSTOWN,WEST,WEST 1,SECONDARY,No,No,No,No,1.30915,103.773605
QUEENSTOWN SECONDARY SCHOOL,1 STRATHMORE ROAD,148800,QUEENSTOWN,SOUTH,SOUTH 4,SECONDARY,No,No,No,No,1.293467,103.8128739
SERANGOON GARDEN SECONDARY SCHOOL,21 SERANGOON NORTH AVENUE 1,555889,SERANGOON,SOUTH,SOUTH 1,SECONDARY,No,No,No,No,1.36967,103.868983
TANGLIN SECONDARY SCHOOL,301 WEST COAST ROAD,127391,CLEMENTI,SOUTH,SOUTH 2,SECONDARY,No,No,No,No,1.309698,103.758184
TANJONG KATONG SECONDARY SCHOOL,130 HAIG ROAD,438796,MARINE PARADE,EAST,EAST 5,SECONDARY,No,Yes,No,No,1.3086279,103.897257
WOODLANDS RING SECONDARY SCHOOL,10 WOODLANDS RING ROAD,738239,WOODLANDS,NORTH,NORTH 8,SECONDARY,No,No,No,No,1.436147,103.800671
ORCHID PARK SECONDARY SCHOOL,10 YISHUN STREET 81,768454,YISHUN,NORTH,NORTH 6,SECONDARY,No,No,No,No,1.414902,103.83835
SEMBAWANG SECONDARY SCHOOL,30 SEMBAWANG CRESCENT,757704,SEMBAWANG,NORTH,NORTH 8,SECONDARY,No,No,No,No,1.445241,103.816996
SENG KANG SECONDARY SCHOOL,10 COMPASSVALE LANE,545090,SENG KANG,NORTH,NORTH 1,SECONDARY,No,No,No,No,1.385933,103.898397
JUNYUAN SECONDARY SCHOOL,11 TAMPINES STREET 84,528933,TAMPINES,EAST,EAST 3,SECONDARY,No,No,No,No,1.353327,103.933573
EAST SPRING SECONDARY SCHOOL,30 TAMPINES STREET 34,529231,TAMPINES,EAST,EAST 3,SECONDARY,No,No,No,No,1.3559969,103.960586
UNITY SECONDARY SCHOOL,20 CHOA CHU KANG STREET 62,689143,CHOA CHU KANG,WEST,WEST 2,SECONDARY,No,No,No,No,1.40005,103.746125
NORTHBROOKS SECONDARY SCHOOL,585 YISHUN RING ROAD,768692,YISHUN,NORTH,NORTH 6,SECONDARY,No,No,No,No,1.421082,103.845179
PASIR RIS CREST SECONDARY SCHOOL,11 PASIR RIS STREET 41,518934,PASIR RIS,EAST,EAST 1,SECONDARY,No,No,No,No,1.372334,103.959377
FUHUA SECONDARY SCHOOL,5 JURONG WEST STREET 41,649410,JURONG WEST,WEST,WEST 7,SECONDARY,No,No,No,No,1.346902,103.726756
MARSILING SECONDARY SCHOOL,12 MARSILING ROAD,739110,WOODLANDS,NORTH,NORTH 5,SECONDARY,No,No,No,No,1.436669,103.775995
WOODGROVE SECONDARY SCHOOL,3 WOODLANDS AVENUE 6,738990,WOODLANDS,NORTH,NORTH 7,SECONDARY,No,No,No,No,1.4280679,103.796334
ZHENGHUA SECONDARY SCHOOL,91 SENJA ROAD,677741,BUKIT PANJANG,WEST,WEST 5,SECONDARY,No,No,No,No,1.388271,103.764939
REGENT SECONDARY SCHOOL,50 CHOA CHU KANG NORTH 5,689621,CHOA CHU KANG,WEST,WEST 8,SECONDARY,No,No,No,No,1.393079,103.750966
KENT RIDGE SECONDARY SCHOOL,147 WEST COAST ROAD,127368,CLEMENTI,SOUTH,SOUTH 2,SECONDARY,No,No,No,No,1.301511,103.765385
WESTWOOD SECONDARY SCHOOL,11 JURONG WEST STREET 25,648350,JURONG WEST,WEST,WEST 3,SECONDARY,No,No,No,No,1.353569,103.701682
CANBERRA SECONDARY SCHOOL,51 SEMBAWANG DRIVE,757699,SEMBAWANG,NORTH,NORTH 8,SECONDARY,No,No,No,No,1.453794,103.814663
COMPASSVALE SECONDARY SCHOOL,51 COMPASSVALE CRESCENT,545083,SENG KANG,NORTH,NORTH 3,SECONDARY,No,No,No,No,1.396086,103.899711
EVERGREEN SECONDARY SCHOOL,11 WOODLANDS STREET 83,738489,WOODLANDS,NORTH,NORTH 5,SECONDARY,No,No,No,No,1.441283,103.794011
ANGLO-CHINESE SCHOOL (JUNIOR),16 WINSTEDT ROAD,227988,CENTRAL,SOUTH,SOUTH 5,PRIMARY,No,No,No,No,1.3094539,103.841372
CHIJ PRIMARY (TOA PAYOH),628 LORONG 1 TOA PAYOH,319765,TOA PAYOH,SOUTH,SOUTH 3,PRIMARY,No,No,No,No,1.333107,103.841908
CHIJ (KELLOCK),121 QUEENSWAY,149059,BUKIT MERAH,SOUTH,SOUTH 4,PRIMARY,No,No,No,No,1.302031,103.800263
CHIJ OUR LADY OF THE NATIVITY,1257 UPPER SERANGOON ROAD,534793,HOUGANG,SOUTH,SOUTH 1,PRIMARY,No,No,No,No,1.372971,103.898088
DE LA SALLE SCHOOL,11 CHOA CHU KANG ST 52,689285,CHOA CHU KANG,WEST,WEST 2,PRIMARY,No,No,No,No,1.394304,103.743605
ST. ANDREW'S JUNIOR SCHOOL,2 FRANCIS THOMAS DRIVE,359337,TOA PAYOH,SOUTH,SOUTH 5,PRIMARY,No,No,No,No,1.331468,103.8652089
ST. ANTHONY'S CANOSSIAN PRIMARY SCHOOL,1602 BEDOK NORTH AVE 4,469701,BEDOK,EAST,EAST 4,PRIMARY,No,No,No,No,1.334282,103.941072
ST. GABRIEL'S PRIMARY SCHOOL,220 LORONG CHUAN,556742,SERANGOON,SOUTH,SOUTH 6,PRIMARY,No,No,No,No,1.349363,103.862358
ST. MARGARET'S PRIMARY SCHOOL,99 WILKIE ROAD,228091,CENTRAL,SOUTH,SOUTH 6,PRIMARY,No,No,No,No,1.304444,103.845851
ST. JOSEPH'S INSTITUTION JUNIOR,3 ESSEX ROAD,309331,NOVENA,SOUTH,SOUTH 5,PRIMARY,No,No,No,No,1.317267,103.845562
ST. STEPHEN'S SCHOOL,20 SIGLAP VIEW,455789,BEDOK,EAST,EAST 7,PRIMARY,No,No,No,No,1.3190059,103.917604
CHIJ OUR LADY OF GOOD COUNSEL,2C BURGHLEY DRIVE,558979,SERANGOON,SOUTH,SOUTH 6,PRIMARY,No,No,No,No,1.35732,103.863998
MONTFORT JUNIOR SCHOOL,52 HOUGANG AVENUE 8,538786,HOUGANG,NORTH,NORTH 4,PRIMARY,No,No,No,No,1.373864,103.889614
CHIJ OUR LADY QUEEN OF PEACE,4 CHESTNUT DRIVE,679287,BUKIT PANJANG,WEST,WEST 8,PRIMARY,No,No,No,No,1.366297,103.767594
FAIRFIELD METHODIST SCHOOL (PRIMARY),100 DOVER ROAD,139648,QUEENSTOWN,SOUTH,SOUTH 2,PRIMARY,No,No,No,No,1.3007439,103.785809
GEYLANG METHODIST SCHOOL (PRIMARY),4 GEYLANG EAST CENTRAL,389706,GEYLANG,EAST,EAST 5,PRIMARY,No,No,No,No,1.3182069,103.88336
KUO CHUAN PRESBYTERIAN PRIMARY SCHOOL,8 BISHAN STREET 13,579793,BISHAN,SOUTH,SOUTH 7,PRIMARY,No,No,No,No,1.349116,103.854727
ST. HILDA'S PRIMARY SCHOOL,2 TAMPINES AVE 3,529706,TAMPINES,EAST,EAST 6,PRIMARY,No,No,Yes,No,1.349548,103.936412
SINGAPORE CHINESE GIRLS' PRIMARY SCHOOL,60 DUNEARN ROAD,309434,NOVENA,NORTH,NORTH 2,PRIMARY,No,No,No,No,1.32051,103.8294109
METHODIST GIRLS' SCHOOL (PRIMARY),11 BLACKMORE DRIVE,599986,BUKIT TIMAH,WEST,WEST 3,PRIMARY,No,No,No,No,1.332954,103.782566
NAN CHIAU PRIMARY SCHOOL,50 ANCHORVALE LINK,545080,SENG KANG,NORTH,NORTH 4,PRIMARY,No,No,No,No,1.391841,103.890834
CANOSSA CATHOLIC PRIMARY SCHOOL,1 SALLIM ROAD,387621,GEYLANG,EAST,EAST 5,PRIMARY,No,No,No,No,1.326166,103.882253
KONG HWA SCHOOL,350 GUILLEMARD ROAD,399772,GEYLANG,EAST,EAST 4,PRIMARY,Yes,No,No,No,1.3112919,103.888386
MEE TOH SCHOOL,21 EDGEDALE PLAINS,828867,PUNGGOL,NORTH,NORTH 4,PRIMARY,No,No,No,No,1.394828,103.90904
NGEE ANN PRIMARY SCHOOL,344 MARINE TERRACE,449149,MARINE PARADE,EAST,EAST 7,PRIMARY,No,No,No,No,1.305526,103.917371
RED SWASTIKA SCHOOL,350 BEDOK NORTH AVENUE 3,469719,BEDOK,EAST,EAST 2,PRIMARY,Yes,No,No,No,1.333361,103.934605
TAO NAN SCHOOL,49 MARINE CRESCENT,449761,MARINE PARADE,EAST,EAST 7,PRIMARY,Yes,No,Yes,No,1.3049059,103.911434
NANYANG PRIMARY SCHOOL,52 KING'S ROAD,268097,BUKIT TIMAH,WEST,WEST 2,PRIMARY,Yes,No,Yes,No,1.320943,103.808147
ST. ANTHONY'S PRIMARY SCHOOL,30 BUKIT BATOK ST 32,659401,BUKIT BATOK,WEST,WEST 4,PRIMARY,No,No,No,No,1.352083,103.819836
MAHA BODHI SCHOOL,10 UBI AVENUE 1,408931,GEYLANG,EAST,EAST 7,PRIMARY,Yes,No,No,No,1.329011,103.901381
PEI CHUN PUBLIC SCHOOL,580 TOA PAYOH EAST,319133,TOA PAYOH,SOUTH,SOUTH 3,PRIMARY,Yes,No,No,No,1.3331869,103.85864
POI CHING SCHOOL,21 TAMPINES STREET 71,529067,TAMPINES,EAST,EAST 2,PRIMARY,Yes,No,No,No,1.3582,103.935299
KHENG CHENG SCHOOL,15 LORONG 3 TOA PAYOH,319580,TOA PAYOH,SOUTH,SOUTH 3,PRIMARY,No,No,No,No,1.337666,103.847796
NAN HUA PRIMARY SCHOOL,170 WEST COAST ROAD,127443,CLEMENTI,WEST,WEST 1,PRIMARY,Yes,No,Yes,No,1.306538,103.765132
PEI HWA PRESBYTERIAN PRIMARY SCHOOL,7 PEI WAH AVENUE,597610,BUKIT TIMAH,WEST,WEST 5,PRIMARY,Yes,No,No,No,1.338081,103.77613
AI TONG SCHOOL,100 BRIGHT HILL DRIVE,579646,BISHAN,SOUTH,SOUTH 7,PRIMARY,Yes,No,No,No,1.360415,103.832615
HONG WEN SCHOOL,30 TOWNER ROAD,327829,KALLANG,SOUTH,SOUTH 4,PRIMARY,Yes,No,No,No,1.321704,103.857647
HOLY INNOCENTS' PRIMARY SCHOOL,5 LORONG LOW KOON,536451,HOUGANG,SOUTH,SOUTH 1,PRIMARY,Yes,No,No,No,1.366573,103.893711
PAYA LEBAR METHODIST GIRLS' SCHOOL (PRIMARY),298 LORONG AH SOO,536741,HOUGANG,EAST,EAST 5,PRIMARY,No,No,No,No,1.351003,103.884813
CHONGFU SCHOOL,170 YISHUN AVENUE 6,768959,YISHUN,NORTH,NORTH 2,PRIMARY,No,No,No,No,1.438563,103.839285
CHIJ (KATONG) PRIMARY,17 MARTIA ROAD,424821,BEDOK,EAST,EAST 7,PRIMARY,No,No,No,No,1.306931,103.910846
ANGLO-CHINESE SCHOOL (PRIMARY),50 BARKER ROAD,309918,NOVENA,SOUTH,SOUTH 3,PRIMARY,No,No,Yes,No,1.318735,103.835345
ANGLO-CHINESE SCHOOL (INDEPENDENT),121 DOVER ROAD,139650,QUEENSTOWN,SOUTH,SOUTH 2,MIXED LEVEL,No,No,Yes,Yes,1.302189,103.780078
ASSUMPTION ENGLISH SCHOOL,622 UPPER BUKIT TIMAH ROAD,678117,BUKIT PANJANG,WEST,WEST 6,SECONDARY,No,No,No,No,1.369148,103.767475
CHIJ SECONDARY (TOA PAYOH),626 LORONG 1 TOA PAYOH,319764,TOA PAYOH,SOUTH,SOUTH 3,SECONDARY,No,Yes,No,No,1.332007,103.842993
GEYLANG METHODIST SCHOOL (SECONDARY),2 GEYLANG EAST CENTRAL,389705,GEYLANG,EAST,EAST 5,SECONDARY,No,No,No,No,1.318124,103.8829
CHIJ KATONG CONVENT,346 MARINE TERRACE,449150,MARINE PARADE,EAST,EAST 7,SECONDARY,No,Yes,No,No,1.306597,103.917751
MONTFORT SECONDARY SCHOOL,50 HOUGANG AVENUE 8,538785,HOUGANG,NORTH,NORTH 4,SECONDARY,No,No,No,No,1.373518,103.888992
SINGAPORE CHINESE GIRLS' SCHOOL,190 DUNEARN ROAD,309437,NOVENA,NORTH,NORTH 2,SECONDARY,No,No,No,Yes,1.321253,103.828017
ST. ANDREW'S SECONDARY SCHOOL,15 FRANCIS THOMAS DRIVE,359342,TOA PAYOH,SOUTH,SOUTH 5,SECONDARY,No,No,No,No,1.331368,103.865853
ST. ANTHONY'S CANOSSIAN SECONDARY SCHOOL,1600 BEDOK NORTH AVENUE 4,469700,BEDOK,EAST,EAST 4,SECONDARY,No,Yes,No,No,1.334613,103.942216
ST. GABRIEL'S SECONDARY SCHOOL,24 SERANGOON AVENUE 1,556140,SERANGOON,SOUTH,SOUTH 6,SECONDARY,No,No,No,No,1.346401,103.875825
CHIJ ST. JOSEPH'S CONVENT,62 SENGKANG EAST WAY,548595,SENG KANG,NORTH,NORTH 1,SECONDARY,No,No,No,No,1.391747,103.902461
ST. JOSEPH'S INSTITUTION,38 MALCOLM ROAD,308274,NOVENA,SOUTH,SOUTH 5,MIXED LEVEL,No,No,No,Yes,1.322914,103.828591
ST. MARGARET'S SECONDARY SCHOOL,111 FARRER ROAD,259240,BUKIT TIMAH,SOUTH,SOUTH 3,SECONDARY,No,Yes,No,No,1.319577,103.809597
ST. PATRICK'S SCHOOL,490 EAST COAST ROAD,429058,BEDOK,EAST,EAST 7,SECONDARY,No,No,No,No,1.3092299,103.916644
CHIJ ST. THERESA'S CONVENT,160 LOWER DELTA ROAD,99138,BUKIT MERAH,SOUTH,SOUTH 4,SECONDARY,No,No,No,No,1.352083,103.819836
CHRIST CHURCH SECONDARY SCHOOL,20 WOODLANDS DRIVE 17,737924,WOODLANDS,NORTH,NORTH 7,SECONDARY,No,No,No,No,1.426395,103.793419
PAYA LEBAR METHODIST GIRLS' SCHOOL (SECONDARY),296 LOR AH SOO,536742,HOUGANG,EAST,EAST 5,SECONDARY,No,Yes,No,No,1.3507309,103.885565
YUYING SECONDARY SCHOOL,47 HOUGANG AVENUE 1,538884,HOUGANG,SOUTH,SOUTH 6,SECONDARY,No,No,No,No,1.356754,103.890092
KUO CHUAN PRESBYTERIAN SECONDARY SCHOOL,10 BISHAN STREET 13,579795,BISHAN,SOUTH,SOUTH 7,SECONDARY,No,No,No,No,1.350135,103.854907
ST. HILDA'S SECONDARY SCHOOL,2 TAMPINES STREET 82,528986,TAMPINES,EAST,EAST 6,SECONDARY,No,No,No,No,1.350082,103.936638
METHODIST GIRLS' SCHOOL (SECONDARY),11 BLACKMORE DRIVE,599986,BUKIT TIMAH,WEST,WEST 3,SECONDARY,No,No,No,Yes,1.332954,103.782566
HAI SING CATHOLIC SCHOOL,9 PASIR RIS DRIVE 6,519421,PASIR RIS,EAST,EAST 1,SECONDARY,No,No,No,No,1.374513,103.954463
ANGLO-CHINESE SCHOOL (BARKER ROAD),60 BARKER ROAD,309919,NOVENA,SOUTH,SOUTH 3,SECONDARY,No,No,No,No,1.319611,103.835757
ANGLICAN HIGH SCHOOL,600 UPPER CHANGI ROAD,487012,BEDOK,EAST,EAST 4,SECONDARY,Yes,Yes,No,No,1.330302,103.941937
CATHOLIC HIGH SCHOOL,9 BISHAN STREET 22,579767,BISHAN,NORTH,NORTH 3,MIXED LEVEL,Yes,Yes,Yes,Yes,1.355193,103.846228
CHUNG CHENG HIGH SCHOOL (MAIN),50 GOODMAN ROAD,439012,MARINE PARADE,EAST,EAST 4,SECONDARY,Yes,Yes,No,No,1.305368,103.890726
CHUNG CHENG HIGH SCHOOL (YISHUN),11 YISHUN STREET 61,768547,YISHUN,NORTH,NORTH 2,SECONDARY,No,No,No,No,1.418737,103.837311
HOLY INNOCENTS' HIGH SCHOOL,1191 UPPER SERANGOON ROAD,534786,HOUGANG,SOUTH,SOUTH 1,SECONDARY,No,No,No,No,1.371204,103.896018
MARIS STELLA HIGH SCHOOL,25 MOUNT VERNON ROAD,368051,TOA PAYOH,NORTH,NORTH 4,MIXED LEVEL,Yes,Yes,No,No,1.341737,103.8782839
NAN CHIAU HIGH SCHOOL,20 ANCHORVALE LINK,545079,SENG KANG,NORTH,NORTH 4,SECONDARY,Yes,No,No,No,1.388713,103.890283
NANYANG GIRLS' HIGH SCHOOL,2 LINDEN DRIVE,288683,BUKIT TIMAH,WEST,WEST 2,SECONDARY,Yes,No,Yes,Yes,1.330651,103.802221
CHIJ ST. NICHOLAS GIRLS' SCHOOL,501 ANG MO KIO STREET 13,569405,ANG MO KIO,NORTH,NORTH 6,MIXED LEVEL,Yes,Yes,No,Yes,1.373744,103.834301
MARYMOUNT CONVENT SCHOOL,20 MARYMOUNT ROAD,297754,TOA PAYOH,SOUTH,SOUTH 3,PRIMARY,No,No,No,No,1.340206,103.839485
MANJUSRI SECONDARY SCHOOL,20 UBI AVENUE 1,408940,GEYLANG,EAST,EAST 7,SECONDARY,No,No,No,No,1.327215,103.901803
PRESBYTERIAN HIGH SCHOOL,5209 ANG MO KIO AVENUE 6,569845,ANG MO KIO,NORTH,NORTH 6,SECONDARY,No,No,No,No,1.382254,103.8431
FAIRFIELD METHODIST SCHOOL (SECONDARY),102 DOVER ROAD,139649,QUEENSTOWN,SOUTH,SOUTH 2,SECONDARY,No,Yes,No,No,1.301925,103.78446
NGEE ANN SECONDARY SCHOOL,1 TAMPINES STREET 32,529283,TAMPINES,EAST,EAST 6,SECONDARY,No,Yes,No,No,1.354061,103.9569719
SINGAPORE SPORTS SCHOOL,1 CHAMPIONS WAY,737913,WOODLANDS,NORTH,NORTH 8,MIXED LEVEL,No,No,No,No,1.426703,103.789056
NUS HIGH SCHOOL OF MATHEMATICS AND SCIENCE,20 CLEMENTI AVENUE 1,129957,CLEMENTI,WEST,WEST 1,MIXED LEVEL,No,No,No,Yes,1.307227,103.769412
SCHOOL OF THE ARTS SINGAPORE,1 ZUBIR SAID DRIVE,227968,CENTRAL,SOUTH,SOUTH 4,MIXED LEVEL,No,No,No,No,1.298907,103.84871
NORTHLIGHT SCHOOL,151 TOWNER ROAD,327830,MARINE PARADE,SOUTH,SOUTH 4,SECONDARY,No,No,No,No,1.352083,103.819836
ASSUMPTION PATHWAY SCHOOL,30 CASHEW ROAD,679697,BUKIT PANJANG,WEST,WEST 6,SECONDARY,No,No,No,No,1.3705271,103.7667529
SCHOOL OF SCIENCE AND TECHNOLOGY SINGAPORE,1 TECHNOLOGY DRIVE,138572,CLEMENTI,WEST,WEST 5,SECONDARY,No,No,No,No,1.352083,103.819836
CREST SECONDARY SCHOOL,561 JURONG EAST STREET 24,609561,JURONG EAST,WEST,WEST 4,SECONDARY,No,No,No,No,1.343466,103.742462
SPECTRA SECONDARY SCHOOL,1 WOODLANDS DRIVE 64,737758,WOODLANDS,NORTH,NORTH 8,SECONDARY,No,No,No,No,1.352083,103.819836